{
  "type": "FeatureCollection",
  "features": [
    {
      "type": "Feature",
      "properties": {
        "norad_id": 34572,
        "name": "COSMOS 2251 DEB",
        "group": "cosmos-2251-debris",
        "lat": 0.09252393370656171,
        "lon": -85.6016629562038,
        "alt_km": 684.9636522695155,
        "timestamp": "2025-12-23T22:42:33.380428+00:00",
        "meta_object_name": "COSMOS 2251 DEB",
        "meta_object_id": "1993-036VJ",
        "meta_epoch": "2025-12-22T08:04:06.005568",
        "meta_mean_motion": 14.50188694,
        "meta_eccentricity": 0.00616659,
        "meta_inclination": 74.0115,
        "meta_ra_of_asc_node": 97.4527,
        "meta_arg_of_pericenter": 169.5509,
        "meta_mean_anomaly": 247.8934,
        "meta_ephemeris_type": 0,
        "meta_classification_type": "U",
        "meta_norad_cat_id": 34572,
        "meta_element_set_no": 999,
        "meta_rev_at_epoch": 87517,
        "meta_bstar": 0.0026494819,
        "meta_mean_motion_dot": 0.00010544,
        "meta_mean_motion_ddot": 0,
        "tle_line1": "1 34572U 93036VJ  25356.33618062  .00010544  00000+0  26495-2 0  9993",
        "tle_line2": "2 34572  74.0115  97.4527 0061665 169.5509 247.8934 14.50188694875175"
      },
      "geometry": {
        "type": "Point",
        "coordinates": [
          -85.6016629562038,
          0.09252393370656171
        ]
      }
    },
    {
      "type": "Feature",
      "properties": {
        "norad_id": 34574,
        "name": "COSMOS 2251 DEB",
        "group": "cosmos-2251-debris",
        "lat": 4.399444420380961,
        "lon": -159.83434958590425,
        "alt_km": 694.9139448711567,
        "timestamp": "2025-12-23T22:42:33.380438+00:00",
        "meta_object_name": "COSMOS 2251 DEB",
        "meta_object_id": "1993-036VL",
        "meta_epoch": "2025-12-22T03:43:37.953696",
        "meta_mean_motion": 14.70698881,
        "meta_eccentricity": 0.00671818,
        "meta_inclination": 74.0679,
        "meta_ra_of_asc_node": 24.8931,
        "meta_arg_of_pericenter": 42.8565,
        "meta_mean_anomaly": 13.7462,
        "meta_ephemeris_type": 0,
        "meta_classification_type": "U",
        "meta_norad_cat_id": 34574,
        "meta_element_set_no": 999,
        "meta_rev_at_epoch": 88917,
        "meta_bstar": 0.00094180568,
        "meta_mean_motion_dot": 5.915e-05,
        "meta_mean_motion_ddot": 0,
        "tle_line1": "1 34574U 93036VL  25356.15530039  .00005915  00000+0  94181-3 0  9996",
        "tle_line2": "2 34574  74.0679  24.8931 0067181  42.8565  13.7462 14.70698881889176"
      },
      "geometry": {
        "type": "Point",
        "coordinates": [
          -159.83434958590425,
          4.399444420380961
        ]
      }
    },
    {
      "type": "Feature",
      "properties": {
        "norad_id": 34576,
        "name": "COSMOS 2251 DEB",
        "group": "cosmos-2251-debris",
        "lat": -65.98534916169676,
        "lon": -23.050556785530528,
        "alt_km": 708.7889477826147,
        "timestamp": "2025-12-23T22:42:33.380449+00:00",
        "meta_object_name": "COSMOS 2251 DEB",
        "meta_object_id": "1993-036VN",
        "meta_epoch": "2025-12-22T07:44:16.997280",
        "meta_mean_motion": 14.55488291,
        "meta_eccentricity": 0.00082401,
        "meta_inclination": 74.0347,
        "meta_ra_of_asc_node": 120.0424,
        "meta_arg_of_pericenter": 257.8353,
        "meta_mean_anomaly": 129.0853,
        "meta_ephemeris_type": 0,
        "meta_classification_type": "U",
        "meta_norad_cat_id": 34576,
        "meta_element_set_no": 999,
        "meta_rev_at_epoch": 88606,
        "meta_bstar": 0.00083691505,
        "meta_mean_motion_dot": 3.617e-05,
        "meta_mean_motion_ddot": 0,
        "tle_line1": "1 34576U 93036VN  25356.32241895  .00003617  00000+0  83692-3 0  9998",
        "tle_line2": "2 34576  74.0347 120.0424 0008240 257.8353 129.0853 14.55488291886065"
      },
      "geometry": {
        "type": "Point",
        "coordinates": [
          -23.050556785530528,
          -65.98534916169676
        ]
      }
    },
    {
      "type": "Feature",
      "properties": {
        "norad_id": 34579,
        "name": "COSMOS 2251 DEB",
        "group": "cosmos-2251-debris",
        "lat": 57.49670577569484,
        "lon": -130.3026340994105,
        "alt_km": 752.2329756468689,
        "timestamp": "2025-12-23T22:42:33.380459+00:00",
        "meta_object_name": "COSMOS 2251 DEB",
        "meta_object_id": "1993-036VR",
        "meta_epoch": "2025-12-22T18:45:53.200800",
        "meta_mean_motion": 14.45333715,
        "meta_eccentricity": 0.00275078,
        "meta_inclination": 74.0515,
        "meta_ra_of_asc_node": 205.1972,
        "meta_arg_of_pericenter": 272.3481,
        "meta_mean_anomaly": 212.941,
        "meta_ephemeris_type": 0,
        "meta_classification_type": "U",
        "meta_norad_cat_id": 34579,
        "meta_element_set_no": 999,
        "meta_rev_at_epoch": 88319,
        "meta_bstar": 0.00031216852,
        "meta_mean_motion_dot": 1.075e-05,
        "meta_mean_motion_ddot": 0,
        "tle_line1": "1 34579U 93036VR  25356.78186575  .00001075  00000+0  31217-3 0  9996",
        "tle_line2": "2 34579  74.0515 205.1972 0027507 272.3481 212.9410 14.45333715883190"
      },
      "geometry": {
        "type": "Point",
        "coordinates": [
          -130.3026340994105,
          57.49670577569484
        ]
      }
    },
    {
      "type": "Feature",
      "properties": {
        "norad_id": 34582,
        "name": "COSMOS 2251 DEB",
        "group": "cosmos-2251-debris",
        "lat": -71.48426446447755,
        "lon": -167.29572046193348,
        "alt_km": 748.0061513727987,
        "timestamp": "2025-12-23T22:42:33.380469+00:00",
        "meta_object_name": "COSMOS 2251 DEB",
        "meta_object_id": "1993-036VU",
        "meta_epoch": "2025-12-22T17:08:14.927424",
        "meta_mean_motion": 14.43373223,
        "meta_eccentricity": 0.0048415,
        "meta_inclination": 74.0196,
        "meta_ra_of_asc_node": 253.8278,
        "meta_arg_of_pericenter": 1.8359,
        "meta_mean_anomaly": 358.2965,
        "meta_ephemeris_type": 0,
        "meta_classification_type": "U",
        "meta_norad_cat_id": 34582,
        "meta_element_set_no": 999,
        "meta_rev_at_epoch": 88091,
        "meta_bstar": 0.00069321765,
        "meta_mean_motion_dot": 2.346e-05,
        "meta_mean_motion_ddot": 0,
        "tle_line1": "1 34582U 93036VU  25356.71406166  .00002346  00000+0  69322-3 0  9994",
        "tle_line2": "2 34582  74.0196 253.8278 0048415   1.8359 358.2965 14.43373223880910"
      },
      "geometry": {
        "type": "Point",
        "coordinates": [
          -167.29572046193348,
          -71.48426446447755
        ]
      }
    },
    {
      "type": "Feature",
      "properties": {
        "norad_id": 34588,
        "name": "COSMOS 2251 DEB",
        "group": "cosmos-2251-debris",
        "lat": -70.26082222758131,
        "lon": -165.3918472170484,
        "alt_km": 745.5104998260576,
        "timestamp": "2025-12-23T22:42:33.380479+00:00",
        "meta_object_name": "COSMOS 2251 DEB",
        "meta_object_id": "1993-036WA",
        "meta_epoch": "2025-12-23T03:47:51.377856",
        "meta_mean_motion": 14.42050655,
        "meta_eccentricity": 0.00192935,
        "meta_inclination": 74.0427,
        "meta_ra_of_asc_node": 248.9501,
        "meta_arg_of_pericenter": 300.6311,
        "meta_mean_anomaly": 212.1349,
        "meta_ephemeris_type": 0,
        "meta_classification_type": "U",
        "meta_norad_cat_id": 34588,
        "meta_element_set_no": 999,
        "meta_rev_at_epoch": 88100,
        "meta_bstar": 0.00038418829,
        "meta_mean_motion_dot": 1.238e-05,
        "meta_mean_motion_ddot": 0,
        "tle_line1": "1 34588U 93036WA  25357.15823354  .00001238  00000+0  38419-3 0  9993",
        "tle_line2": "2 34588  74.0427 248.9501 0019293 300.6311 212.1349 14.42050655881002"
      },
      "geometry": {
        "type": "Point",
        "coordinates": [
          -165.3918472170484,
          -70.26082222758131
        ]
      }
    },
    {
      "type": "Feature",
      "properties": {
        "norad_id": 34589,
        "name": "COSMOS 2251 DEB",
        "group": "cosmos-2251-debris",
        "lat": 29.948567449855563,
        "lon": 46.49954498528112,
        "alt_km": 827.2430018628547,
        "timestamp": "2025-12-23T22:42:33.380489+00:00",
        "meta_object_name": "COSMOS 2251 DEB",
        "meta_object_id": "1993-036WB",
        "meta_epoch": "2025-12-22T21:28:19.587360",
        "meta_mean_motion": 13.8606442,
        "meta_eccentricity": 0.0252311,
        "meta_inclination": 73.9251,
        "meta_ra_of_asc_node": 38.7279,
        "meta_arg_of_pericenter": 340.0599,
        "meta_mean_anomaly": 203.9876,
        "meta_ephemeris_type": 0,
        "meta_classification_type": "U",
        "meta_norad_cat_id": 34589,
        "meta_element_set_no": 999,
        "meta_rev_at_epoch": 84852,
        "meta_bstar": 0.00040697,
        "meta_mean_motion_dot": 5.77e-06,
        "meta_mean_motion_ddot": 0,
        "tle_line1": "1 34589U 93036WB  25356.89467115  .00000577  00000+0  40697-3 0  9999",
        "tle_line2": "2 34589  73.9251  38.7279 0252311 340.0599 203.9876 13.86064420848524"
      },
      "geometry": {
        "type": "Point",
        "coordinates": [
          46.49954498528112,
          29.948567449855563
        ]
      }
    }
  ]
}